INMARSAT 4-F2 (SOUTHPA*)
1 28899U 05044A   26157.58972711 -.00000248  00000+0  00000+0 0  9993
2 28899   5.0801  43.7090 0003142  32.6860 174.4008  1.00272329 75417
GSAT-8 (GAGAN/PRN 127)  
1 37605U 11022A   26157.85744347  .00000099  00000+0  00000+0 0  9996
2 37605   2.1036  81.9500 0002210 213.4581 323.6171  1.00270710 53118
LUCH 5A (SDCM/PRN 140)  
1 37951U 11074B   26157.59434360 -.00000037  00000+0  00000+0 0  9992
2 37951   8.7265  73.9638 0002403  12.4500 189.5697  1.00269862 52941
SES-5 (EGNOS/PRN 136)   
1 38652U 12036A   26157.84747677  .00000046  00000+0  00000+0 0  9995
2 38652   0.0520 308.7499 0002018 141.9520 114.6300  1.00262610 44355
GSAT-10 (GAGAN/PRN 128) 
1 38779U 12051B   26157.79164559 -.00000151  00000+0  00000+0 0  9996
2 38779   0.0180 262.1479 0008014 186.7046 174.3767  1.00271886 49990
LUCH 5B (SDCM/PRN 125)  
1 38977U 12061A   26156.98739819 -.00000127  00000+0  00000+0 0  9997
2 38977  10.4571  49.9907 0001666 137.7014  45.8723  1.00274220 49497
ASTRA 5B (EGNOS/PRN 123)
1 39617U 14011B   26157.86570994  .00000151  00000+0  00000+0 0  9997
2 39617   0.0586 315.7738 0002199 107.3141 167.3575  1.00269535 44563
LUCH 5V (SDCM/PRN 141)  
1 39727U 14023A   26157.85233409 -.00000254  00000+0  00000+0 0  9993
2 39727   5.1075  69.8532 0002825  28.9558 198.0024  1.00268278 44258
GSAT-15 (GAGAN/PRN 139) 
1 41028U 15065A   26157.82243154 -.00000244  00000+0  00000+0 0  9991
2 41028   0.0474 114.1142 0004068 324.1265 206.5857  1.00271562 38690
EUTELSAT 117 WEST B (W*)
1 41589U 16038B   26157.68078750  .00000002  00000+0  00000+0 0  9997
2 41589   0.0031 120.5038 0000327 261.3354   1.3280  1.00271549 36550
SES-15 (WAAS/PRN 133)   
1 42709U 17026A   26157.67836081  .00000074  00000+0  00000+0 0  9997
2 42709   0.0214 330.8129 0001288  53.4219 345.9186  1.00267706  7327
QZS-2 (QZSS/PRN 194)    
1 42738U 17028A   26157.54144825 -.00000152  00000+0  00000+0 0  9993
2 42738  39.4434 243.3115 0760531 269.1455  78.6569  1.00286802  7517
QZS-3 (QZSS/PRN 199)    
1 42917U 17048A   26157.89012110 -.00000334  00000+0  00000+0 0  9995
2 42917   0.0579 187.9549 0002782 257.2639 257.5623  1.00270718 32159
QZS-4 (QZSS/PRN 195)    
1 42965U 17062A   26157.37281824 -.00000313  00000+0  00000+0 0  9994
2 42965  40.1149 343.6213 0744893 271.5546 271.6824  1.00254650 31696
BEIDOU-3 G1 (PRN 130)   
1 43683U 18085A   26157.80688478 -.00000094  00000+0  00000+0 0  9998
2 43683   2.8415  97.6665 0008568 346.3409 261.6753  1.00271915 27950
EUTELSAT 5 WEST B (EGN*)
1 44624U 19067A   26157.84553830 -.00000028  00000+0  00000+0 0  9999
2 44624   0.0641 343.0824 0003250  93.2479 118.3309  1.00272075 24332
BEIDOU-3 G2 (PRN 144)   
1 45344U 20017A   26157.86237201 -.00000128  00000+0  00000+0 0  9990
2 45344   2.8429  47.1884 0002632  26.1693 212.4117  1.00274173 23153
BEIDOU-3 G3 (PRN 143)   
1 45807U 20040A   26157.86839069 -.00000340  00000+0  00000+0 0  9996
2 45807   2.4215  67.4263 0003013 337.4536 273.6009  1.00273150 21960
GALAXY 30 (WAAS/PRN 135)
1 46114U 20056C   26157.75049200  .00000050  00000+0  00000+0 0  9990
2 46114   0.0179 349.6740 0002313  84.4288 326.2293  1.00272626 21186
QZS-1R (QZSS/PRN 196)   
1 49336U 21096A   26157.65764851 -.00000234  00000+0  00000+0 0  9994
2 49336  37.4401  79.7406 0754231 271.5748 275.1259  1.00259679 16901
QZS-6 (QZSS/PRN 200)    
1 62876U 25023A   26157.88525295 -.00000220  00000+0  00000+0 0  9999
2 62876   0.0260  45.4061 0002052  37.8318 221.2394  1.00274505  4841
